{
    "links": {
        "self": "http://www.neowsapp.com/rest/v1/neo/3325673?api_key=iIulBulltgU6a56xZRHN4H3l9WmuAYTsLGpBGhQ2"
    },
    "id": "3325673",
    "neo_reference_id": "3325673",
    "name": "(2006 EB1)",
    "designation": "2006 EB1",
    "nasa_jpl_url": "http://ssd.jpl.nasa.gov/sbdb.cgi?sstr=3325673",
    "absolute_magnitude_h": 23.4,
    "estimated_diameter": {
        "kilometers": {
            "estimated_diameter_min": 0.0555334912,
            "estimated_diameter_max": 0.1241766613
        },
        "meters": {
            "estimated_diameter_min": 55.5334911581,
            "estimated_diameter_max": 124.1766612574
        },
        "miles": {
            "estimated_diameter_min": 0.0345069009,
            "estimated_diameter_max": 0.0771597762
        },
        "feet": {
            "estimated_diameter_min": 182.1964991311,
            "estimated_diameter_max": 407.4037573197
        }
    },
    "is_potentially_hazardous_asteroid": false,
    "close_approach_data": [
        {
            "close_approach_date": "2006-03-01",
            "close_approach_date_full": "2006-Mar-01 04:26",
            "epoch_date_close_approach": 1141187160000,
            "relative_velocity": {
                "kilometers_per_second": "8.3283004288",
                "kilometers_per_hour": "29981.8815438105",
                "miles_per_hour": "18629.5752292638"
            },
            "miss_distance": {
                "astronomical": "0.0377355904",
                "lunar": "14.6791446656",
                "kilometers": "5645163.947032448",
                "miles": "3507742.2205178624"
            },
            "orbiting_body": "Earth"
        }
    ],
    "orbital_data": {
        "orbit_id": "11",
        "orbit_determination_date": "2017-04-06 09:08:57",
        "first_observation_date": "2006-03-04",
        "last_observation_date": "2006-04-19",
        "data_arc_in_days": 46,
        "observations_used": 67,
        "orbit_uncertainty": "7",
        "minimum_orbit_intersection": ".0412818",
        "jupiter_tisserand_invariant": "3.521",
        "epoch_osculation": "2459000.5",
        "eccentricity": ".5164325437108498",
        "semi_major_axis": "2.133940427286978",
        "inclination": "9.247916705732999",
        "ascending_node_longitude": "160.6122584989468",
        "orbital_period": "1138.601793615534",
        "perihelion_distance": "1.031904144295746",
        "perihelion_argument": "5.321332743486079",
        "aphelion_distance": "3.23597671027821",
        "perihelion_time": "2459494.086192735252",
        "mean_anomaly": "203.9392679854755",
        "mean_motion": ".3161772640958613",
        "equinox": "J2000",
        "orbit_class": {
            "orbit_class_type": "AMO",
            "orbit_class_description": "Near-Earth asteroid orbits similar to that of 1221 Amor",
            "orbit_class_range": "1.017 AU < q (perihelion) < 1.3 AU"
        }
    },
    "is_sentry_object": false
}